OBJECT_NAME,OBJECT_ID,EPOCH,MEAN_MOTION,ECCENTRICITY,INCLINATION,RA_OF_ASC_NODE,ARG_OF_PERICENTER,MEAN_ANOMALY,EPHEMERIS_TYPE,CLASSIFICATION_TYPE,NORAD_CAT_ID,ELEMENT_SET_NO,REV_AT_EPOCH,BSTAR,MEAN_MOTION_DOT,MEAN_MOTION_DDOT
CORVUS BC4,2018-099K,2026-07-04T20:26:25.844064,15.12645301,.0006679,97.4053,228.3152,306.0328,54.0284,0,U,43767,999,41507,.40813864E-3,.7076E-4,0
M2 PATHFINDER,2020-037E,2026-07-04T06:29:10.825152,15.04757926,.00130138,97.8152,16.6938,95.4141,264.8569,0,U,45727,999,32806,.24274235E-3,.3364E-4,0
NETSAT-4,2020-068U,2026-07-04T18:01:34.974336,15.44479881,.00036131,97.8603,195.4101,238.0391,122.0505,0,U,46504,999,31848,.75784712E-3,.35129E-3,0
NETSAT-3,2020-068V,2026-07-04T18:29:49.425216,15.43325214,.00029275,97.8655,193.6261,264.4005,95.6908,0,U,46505,999,31839,.82963113E-3,.37003E-3,0
NETSAT-1,2020-068W,2026-07-04T17:42:56.207520,15.35065303,.00028876,97.8750,187.7124,325.0586,35.0466,0,U,46506,999,31799,.68433136E-3,.23243E-3,0
NETSAT-2,2020-068X,2026-07-04T18:22:58.757376,15.46802751,.00013663,97.8616,195.3866,283.0493,77.0603,0,U,46507,999,31845,.90260896E-3,.45364E-3,0
GREENCUBE (IO-117),2022-080E,2026-07-04T14:46:25.944384,6.42583218,.00089125,70.1432,292.1845,286.1739,73.7940,0,U,53109,999,9318,0,-.3E-7,0
SITRO-AIS 5 (KATYS),2023-091L,2026-07-04T14:26:21.019488,15.29880307,.00117353,97.5046,249.6703,48.3422,311.8821,0,U,57176,999,16700,.8567027E-3,.24814E-3,0
SITRO-AIS 6 (CHIRKIN),2023-091AC,2026-07-04T14:54:23.580864,15.26286786,.0012241,97.5052,248.7159,51.9047,308.3293,0,U,57192,999,16694,.76979039E-3,.19966E-3,0
SITRO-AIS 8 (ANOKHIN),2023-091AD,2026-07-04T15:40:29.651808,15.32641125,.00105954,97.5043,251.3828,44.3846,315.8243,0,U,57193,999,16712,.93316737E-3,.29464E-3,0
SITRO-AIS 7 (FARTUSHNIY),2023-091AE,2026-07-04T15:04:07.051296,15.25966494,.00121851,97.5050,248.5384,53.0699,307.1654,0,U,57194,999,16693,.74770962E-3,.19203E-3,0
SITRO-AIS 10 (BURDAEV),2023-091AK,2026-07-04T16:12:19.400256,15.39312667,.00058505,97.5068,256.6424,22.8499,337.3006,0,U,57199,999,16745,.1102266E-2,.43125E-3,0
SITRO-AIS 9 (SHCHUKIN),2023-091AM,2026-07-04T15:24:50.226336,15.38804107,.00061215,97.5066,256.3248,23.1241,337.0278,0,U,57201,999,16743,.10702235E-2,.41172E-3,0
SITRO-AIS 12 (SMIRENNIY),2023-091AQ,2026-07-04T15:06:32.779584,15.39097328,.00056907,97.5079,256.7899,17.2148,342.9289,0,U,57204,999,16745,.98280973E-3,.38147E-3,0
SITRO-AIS 11 (SHEFFER),2023-091AU,2026-07-04T15:18:51.001056,15.39533113,.00055731,97.5076,257.0564,17.1589,342.9844,0,U,57208,999,16747,.10594845E-2,.41739E-3,0
SITRO-AIS 25,2024-039R,2026-07-04T22:18:28.838016,14.93605648,.01421825,95.3897,247.2850,265.8918,92.6047,0,U,59066,999,12737,.34986141E-3,.447E-4,0
SITRO-AIS 26,2024-039S,2026-07-04T22:23:57.658272,14.93398828,.01425411,95.3898,247.1817,266.4999,91.9914,0,U,59067,999,12736,.31637333E-3,.4019E-4,0
SITRO-AIS 27,2024-039T,2026-07-04T23:10:23.433600,14.93817904,.0141788,95.3893,247.4839,264.9193,93.5837,0,U,59068,999,12739,.32697207E-3,.4195E-4,0
SITRO-AIS 28,2024-039U,2026-07-04T22:37:19.875360,14.93854578,.01415596,95.3900,247.5164,264.8559,93.6498,0,U,59071,999,12739,.28945638E-3,.371E-4,0
GRBBETA,2024-128C,2026-07-04T08:13:11.743392,15.06749901,.00384788,61.9890,156.0715,138.2511,222.1530,0,U,60237,999,10885,.33299077E-3,.4844E-4,0
OOV-CUBE (TUBSAT-30),2024-128F,2026-07-04T08:31:35.761728,15.02839523,.00424682,61.9937,165.7051,137.5285,222.9106,0,U,60240,999,10869,.21118858E-3,.2684E-4,0
ROBUSTA-3A (MEDITERRANEE),2024-128J,2026-07-04T20:40:17.073408,15.11878334,.00393204,61.9859,145.7327,131.4239,229.0246,0,U,60243,999,10909,.73036519E-3,.12597E-3,0
LASARSAT,2024-247Q,2026-07-04T16:05:37.876992,15.47475389,.00063921,44.9731,163.8922,88.0405,272.1217,0,U,62391,999,8602,.13443371E-2,.70912E-3,0
CROCUBE,2024-247T,2026-07-04T07:46:26.256864,15.49468158,.00063327,44.9702,162.8872,91.7427,268.4189,0,U,62394,999,8600,.98588069E-3,.55566E-3,0
FORESAIL-1 PRIME,2025-276DS,2026-07-04T15:41:12.803424,15.18869999,.0003586,97.4190,258.6061,67.3521,292.8092,0,U,66778,999,3305,.41292487E-3,.8546E-4,0
KNACKSAT-2,1998-067XZ,2026-07-04T18:23:44.594304,15.61584760,.00083107,51.6262,205.9511,290.9870,69.0234,0,U,67683,999,2302,.95858254E-3,.84457E-3,0
