CORVUS BC4              
1 43767U 18099K   26185.85168801  .00007076  00000+0  40814-3 0  9992
2 43767  97.4053 228.3152 0006679 306.0328  54.0284 15.12645301415078
M2 PATHFINDER           
1 45727U 20037E   26185.27026418  .00003364  00000+0  24274-3 0  9996
2 45727  97.8152  16.6938 0013013  95.4141 264.8569 15.04757926328069
NETSAT-4                
1 46504U 20068U   26185.75109924  .00035129  00000+0  75785-3 0  9998
2 46504  97.8603 195.4101 0003613 238.0391 122.0505 15.44479881318484
NETSAT-3                
1 46505U 20068V   26185.77071094  .00037003  00000+0  82963-3 0  9996
2 46505  97.8655 193.6261 0002927 264.4005  95.6908 15.43325214318392
NETSAT-1                
1 46506U 20068W   26185.73815055  .00023243  00000+0  68433-3 0  9993
2 46506  97.8750 187.7124 0002887 325.0586  35.0466 15.35065303317997
NETSAT-2                
1 46507U 20068X   26185.76595784  .00045364  00000+0  90261-3 0  9993
2 46507  97.8616 195.3866 0001366 283.0493  77.0603 15.46802751318457
GREENCUBE (IO-117)      
1 53109U 22080E   26185.61557806 -.00000003  00000+0  00000+0 0  9992
2 53109  70.1432 292.1845 0008912 286.1739  73.7940  6.42583218 93184
SITRO-AIS 5 (KATYS)     
1 57176U 23091L   26185.60163217  .00024814  00000+0  85670-3 0  9996
2 57176  97.5046 249.6703 0011735  48.3422 311.8821 15.29880307167001
SITRO-AIS 6 (CHIRKIN)   
1 57192U 23091AC  26185.62110626  .00019966  00000+0  76979-3 0  9996
2 57192  97.5052 248.7159 0012241  51.9047 308.3293 15.26286786166941
SITRO-AIS 8 (ANOKHIN)   
1 57193U 23091AD  26185.65312097  .00029464  00000+0  93317-3 0  9995
2 57193  97.5043 251.3828 0010595  44.3846 315.8243 15.32641125167126
SITRO-AIS 7 (FARTUSHNIY)
1 57194U 23091AE  26185.62785939  .00019203  00000+0  74771-3 0  9995
2 57194  97.5050 248.5384 0012185  53.0699 307.1654 15.25966494166939
SITRO-AIS 10 (BURDAEV)  
1 57199U 23091AK  26185.67522454  .00043125  00000+0  11023-2 0  9996
2 57199  97.5068 256.6424 0005850  22.8499 337.3006 15.39312667167457
SITRO-AIS 9 (SHCHUKIN)  
1 57201U 23091AM  26185.64224799  .00041172  00000+0  10702-2 0  9991
2 57201  97.5066 256.3248 0006121  23.1241 337.0278 15.38804107167431
SITRO-AIS 12 (SMIRENNIY)
1 57204U 23091AQ  26185.62954606  .00038147  00000+0  98281-3 0  9996
2 57204  97.5079 256.7899 0005690  17.2148 342.9289 15.39097328167453
SITRO-AIS 11 (SHEFFER)  
1 57208U 23091AU  26185.63809029  .00041739  00000+0  10595-2 0  9991
2 57208  97.5076 257.0564 0005573  17.1589 342.9844 15.39533113167471
SITRO-AIS 25            
1 59066U 24039R   26185.92950044  .00004470  00000+0  34986-3 0  9996
2 59066  95.3897 247.2850 0142182 265.8918  92.6047 14.93605648127378
SITRO-AIS 26            
1 59067U 24039S   26185.93330623  .00004019  00000+0  31637-3 0  9992
2 59067  95.3898 247.1817 0142541 266.4999  91.9914 14.93398828127360
SITRO-AIS 27            
1 59068U 24039T   26185.96554900  .00004195  00000+0  32697-3 0  9994
2 59068  95.3893 247.4839 0141788 264.9193  93.5837 14.93817904127390
SITRO-AIS 28            
1 59071U 24039U   26185.94259115  .00003710  00000+0  28946-3 0  9990
2 59071  95.3900 247.5164 0141559 264.8559  93.6498 14.93854578127398
GRBBETA                 
1 60237U 24128C   26185.34249703  .00004844  00000+0  33299-3 0  9997
2 60237  61.9890 156.0715 0038478 138.2511 222.1530 15.06749901108858
OOV-CUBE (TUBSAT-30)    
1 60240U 24128F   26185.35527502  .00002684  00000+0  21119-3 0  9996
2 60240  61.9937 165.7051 0042468 137.5285 222.9106 15.02839523108693
ROBUSTA-3A (MEDITERRAN*)
1 60243U 24128J   26185.86130872  .00012597  00000+0  73037-3 0  9995
2 60243  61.9859 145.7327 0039320 131.4239 229.0246 15.11878334109099
LASARSAT                
1 62391U 24247Q   26185.67057728  .00070912  00000+0  13443-2 0  9999
2 62391  44.9731 163.8922 0006392  88.0405 272.1217 15.47475389 86028
CROCUBE                 
1 62394U 24247T   26185.32391501  .00055566  00000+0  98588-3 0  9996
2 62394  44.9702 162.8872 0006332  91.7427 268.4189 15.49468158 86003
FORESAIL-1 PRIME        
1 66778U 25276DS  26185.65362041  .00008546  00000+0  41292-3 0  9998
2 66778  97.4190 258.6061 0003586  67.3521 292.8092 15.18869999 33058
KNACKSAT-2              
1 67683U 98067XZ  26185.76648836  .00084457  00000+0  95858-3 0  9995
2 67683  51.6262 205.9511 0008310 290.9870  69.0234 15.61584760 23028
